#aV2024  7 24  0  0  0.00000000     288 DD+AD WGS84 FIT  NGA
## 2324 259200.00000000   300.00000000 60515 0.0000000000000
+   31     2  3  4  5  6  7  8  9 10 11 12 13 14 15 16 17 18
+         19 20 21 22 23 24 25 26 27 28 29 30 31 32  0  0  0
+          0  0  0  0  0  0  0  0  0  0  0  0  0  0  0  0  0
+          0  0  0  0  0  0  0  0  0  0  0  0  0  0  0  0  0
+          0  0  0  0  0  0  0  0  0  0  0  0  0  0  0  0  0
++         2  2  2  2  2  2  2  2  2  2  2  2  2  2  2  2  2
++         2  2  2  2  2  2  2  2  2  2  2  2  2  2  0  0  0
++         0  0  0  0  0  0  0  0  0  0  0  0  0  0  0  0  0
++         0  0  0  0  0  0  0  0  0  0  0  0  0  0  0  0  0
++         0  0  0  0  0  0  0  0  0  0  0  0  0  0  0  0  0
%c cc cc ccc ccc cccc cccc cccc cccc ccccc ccccc ccccc ccccc
%c cc cc ccc ccc cccc cccc cccc cccc ccccc ccccc ccccc ccccc
%f  0.0000000  0.000000000  0.00000000000  0.000000000000000
%f  0.0000000  0.000000000  0.00000000000  0.000000000000000
%i    0    0    0    0      0      0      0      0         0
%i    0    0    0    0      0      0      0      0         0
/*      NGA, ST. LOUIS,MO.                                  
/*   EPHEMERIS COMPUTED FROM 2 DAYS OF DATA                 
/*   EPOCHA v9 SMOOTHER                                     
/*   G2296 IERS2010 SATIGS SATAPC                           
*  2024  7 24 17 50  0.00000000
P  2 -10271.591856  19830.553333 -13661.237683   -392.696078                    
V  2 -15906.991522   9272.389692  24880.151446      0.074499                    
P  3   2931.986918  16852.950962 -20515.811020    471.925135                    
V  3 -23028.318122 -11160.713136 -12446.520253      0.157898                    
P  4  -1098.920957  26375.085293  -2129.937133    410.388792                    
V  4  -2809.987366  -2693.502918 -31803.070670      0.076597                    
P  5  13727.575701  -9216.626545  20618.889895   -180.856964                    
V  5  23839.331205  11716.528507 -10464.190947     -0.013236                    
P  6  21890.469748  -2120.452508 -14907.704562    141.762048                    
V  6 -15350.369454  11177.358594 -23928.495015     -0.232910                    
P  7   8405.362266  13248.985014  21951.279918    -63.692982                    
V  7 -22546.037900  14270.751441   -439.085475      0.070925                    
P  8  -7270.256744  21829.654889  12773.663590    288.007044                    
V  8  -4209.014955 -16286.602797  25640.030317      0.156876                    
P  9   7925.068329  23722.700116   8767.795625    286.188112                    
V  9  -1844.009805  11440.926885 -29055.146774      0.152143                    
P 10 -24407.051608 -10507.150093  -2779.825086    -74.697693                    
V 10  -2513.145327  -3299.790544  31804.660676     -0.101688                    
P 11  23565.581285 -11989.263326  -2125.579147   -710.487232                    
V 11  -1010.219200   3700.330120 -31762.722340     -0.064438                    
P 12   1250.637909 -16445.175159 -21107.060022   -524.890786                    
V 12  22749.772752  12912.969066  -8784.175065     -0.030526                    
P 13  13231.192184 -14797.727569  17310.945050    666.622667                    
V 13   -389.454169  22533.264964  19549.122634      0.023581                    
P 14  23212.698400  13143.598128    636.966072    456.420245                    
V 14  -2157.864164   2386.421673  31243.241410      0.088525                    
P 15   4321.300964 -22912.175359  12040.750262    184.764914                    
V 15   6442.245568  15222.787618  25762.763832      0.042729                    
P 16 -17720.845844   4588.440721  19065.597077   -227.644846                    
V 16 -20352.092303 -14181.829636 -14803.281473      0.105206                    
P 17  12993.221530  12400.605515 -19093.285690    670.742535                    
V 17  -1680.633040  25158.445608  15032.544855     -0.081924                    
P 18  -8402.729412 -12344.247986  21981.025455   -639.839221                    
V 18  23678.279122 -14626.563313    631.981380     -0.037632                    
P 19  14942.551810   3185.376035 -21914.133648    515.028759                    
V 19  -1547.343549  27339.136498   2536.656572      0.053029                    
P 20  21697.325374  -4239.507019  14671.488289    372.417663                    
V 20  17111.263873   7644.755703 -23344.072657     -0.004197                    
P 21 -14395.304698  19454.270157  -9204.904627    106.920318                    
V 21 -12059.749790   5075.945768  29325.332479     -0.021607                    
P 22  23630.679899   8996.059981  -7206.536656    -43.418817                    
V 22   6665.166889   7759.540177  30114.356072     -0.044324                    
P 23 -19406.779646 -15958.855117   8955.423687    281.379087                    
V 23  10949.168689   3188.513220  29284.870488      0.088213                    
P 24  10906.717148 -20644.811403 -12696.423576   -484.362382                    
V 24  14223.270863  -7285.471552  25322.298347     -0.013256                    
P 25 -10779.201797 -18350.830236 -16387.677157    498.804813                    
V 25  18865.676584   7211.986389 -20661.345138      0.003032                    
P 26 -24853.093326  -2767.653009   9324.820492    113.921895                    
V 26  -9881.488320  -7488.355783 -27723.204640     -0.071273                    
P 27 -12876.050510  12079.850459  19418.166496    -31.834528                    
V 27  -2958.697789 -25291.995305  13982.593488     -0.007872                    
P 28 -20837.168109    431.304646 -16475.115826   -344.731898                    
V 28  16144.941217 -13397.665381 -20781.068393     -0.155940                    
P 29  -3429.757921 -25565.356337   5993.605641   -587.881404                    
V 29   2722.302027  -7622.335213 -30834.071923      0.019923                    
P 30  17929.889048   5220.394917  19132.249912   -352.175136                    
V 30 -19349.549879  14240.172906  14095.525653      0.066012                    
P 31 -24248.815833   9028.415728  -7061.611611   -226.505777                    
V 31   6004.556762  -6637.884051 -29662.157301      0.003085                    
P 32 -14363.827770 -10176.299467 -19735.989107   -610.349177                    
V 32   -419.566847 -25482.798787  13105.049917      0.022263                    
EOF
